NORAD_CAT_ID,OBJECT_NAME,OBJECT_TYPE,EPOCH,MEAN_MOTION,ECCENTRICITY,INCLINATION,RA_OF_ASC_NODE,ARG_OF_PERICENTER,MEAN_ANOMALY,BSTAR,MEAN_MOTION_DOT,MEAN_MOTION_DDOT,TLE_LINE0,TLE_LINE1,TLE_LINE2,SEMIMAJOR_AXIS,PERIOD,APOGEE,PERIGEE,DECAYED
55403.0,STARLINK-5597,PAYLOAD,2024-01-11 21:47:47,14.98320246,0.0002401,69.9986,250.7189,258.5636,101.5253,6.4056e-05,6.71e-06,0.0,0 STARLINK-5597,1 55403U 23014N   24011.90818295  .00000671  00000-0  64056-4 0  9996,2 55403  69.9986 250.7189 0002401 258.5636 101.5253 14.98320246 54050,6950.223,96.108,573.757,570.419,0.0
55403.0,STARLINK-5597,PAYLOAD,2024-01-12 12:12:59,14.98327443,0.0002408,69.9986,249.204,258.1093,101.9796,6.6202e-05,6.97e-06,0.0,0 STARLINK-5597,1 55403U 23014N   24012.50902067  .00000697  00000-0  66202-4 0  9997,2 55403  69.9986 249.2040 0002408 258.1093 101.9796 14.98327443 53207,6950.201,96.107,573.739,570.392,0.0
55403.0,STARLINK-5597,PAYLOAD,2024-01-12 21:49:47,14.98328802,0.0002445,69.9987,248.1939,257.2841,102.8044,1.4041e-05,7.5e-07,0.0,0 STARLINK-5597,1 55403U 23014N   24012.90958152  .00000075  00000-0  14041-4 0  9991,2 55403  69.9987 248.1939 0002445 257.2841 102.8044 14.98328802 54202,6950.197,96.107,573.761,570.362,0.0
55403.0,STARLINK-5597,PAYLOAD,2024-01-13 01:02:03,14.9832969,0.0002434,69.9987,247.8574,257.4171,102.6715,2.4436e-05,1.99e-06,0.0,0 STARLINK-5597,1 55403U 23014N   24013.04310074  .00000199  00000-0  24436-4 0  9998,2 55403  69.9987 247.8574 0002434 257.4171 102.6715 14.98329690 54220,6950.194,96.107,573.751,570.367,0.0
55403.0,STARLINK-5597,PAYLOAD,2024-01-13 20:15:40,14.98329343,0.0002498,69.999,245.8371,258.5631,101.5247,3.8483e-05,3.66e-06,0.0,0 STARLINK-5597,1 55403U 23014N   24013.84422094  .00000366  00000-0  38483-4 0  9995,2 55403  69.9990 245.8371 0002498 258.5631 101.5247 14.98329343 53402,6950.195,96.107,573.796,570.324,0.0
55403.0,STARLINK-5597,PAYLOAD,2024-01-14 01:04:04,14.98329654,0.0002504,69.999,245.3324,259.4379,100.6498,3.9001e-05,3.72e-06,0.0,0 STARLINK-5597,1 55403U 23014N   24014.04450081  .00000372  00000-0  39001-4 0  9999,2 55403  69.9990 245.3324 0002504 259.4379 100.6498 14.98329654 54372,6950.194,96.107,573.799,570.319,0.0
55403.0,STARLINK-5597,PAYLOAD,2024-01-14 21:53:49,14.98330115,0.0002388,69.9995,243.1436,257.2526,102.8366,1.6304e-05,1.02e-06,0.0,0 STARLINK-5597,1 55403U 23014N   24014.91238071  .00000102  00000-0  16304-4 0  9990,2 55403  69.9995 243.1436 0002388 257.2526 102.8366 14.98330115 54504,6950.193,96.107,573.717,570.398,0.0
55403.0,STARLINK-5597,PAYLOAD,2024-01-15 01:06:05,14.98330446,0.0002422,69.9994,242.8067,259.2601,100.8285,2.7231e-07,-9e-07,0.0,0 STARLINK-5597,1 55403U 23014N   24015.04590092 -.00000090  00000-0  27231-6 0  9999,2 55403  69.9994 242.8067 0002422 259.2601 100.8285 14.98330446 53586,6950.192,96.107,573.74,570.373,0.0
55403.0,STARLINK-5597,PAYLOAD,2024-01-15 18:43:34,14.98333474,0.0002535,69.9992,240.9548,264.0259,96.0611,2.204e-05,1.7e-06,0.0,0 STARLINK-5597,1 55403U 23014N   24015.78025706  .00000170  00000-0  22040-4 0  9994,2 55403  69.9992 240.9548 0002535 264.0259  96.0611 14.98333474 54635,6950.182,96.107,573.809,570.285,0.0
55403.0,STARLINK-5597,PAYLOAD,2024-01-16 01:08:06,14.98333296,0.0002564,69.9992,240.2819,265.1405,94.9462,1.649e-05,1.04e-06,0.0,0 STARLINK-5597,1 55403U 23014N   24016.04729685  .00000104  00000-0  16490-4 0  9990,2 55403  69.9992 240.2819 0002564 265.1405  94.9462 14.98333296 53739,6950.183,96.107,573.83,570.266,0.0
55403.0,STARLINK-5597,PAYLOAD,2024-01-16 21:57:51,14.98328711,0.0002572,69.9994,238.0941,263.1912,96.8954,-3.1089e-05,-4.64e-06,0.0,0 STARLINK-5597,1 55403U 23014N   24016.91518030 -.00000464  00000-0 -31089-4 0  9998,2 55403  69.9994 238.0941 0002572 263.1912  96.8954 14.98328711 54804,6950.197,96.107,573.849,570.274,0.0
55403.0,STARLINK-5597,PAYLOAD,2024-01-16 23:33:59,14.9832921,0.0002566,69.9994,237.9258,263.3772,96.7095,-2.5042e-05,-3.92e-06,0.0,0 STARLINK-5597,1 55403U 23014N   24016.98193983 -.00000392  00000-0 -25042-4 0  9993,2 55403  69.9994 237.9258 0002566 263.3772  96.7095 14.98329210 53878,6950.195,96.107,573.844,570.277,0.0
55403.0,STARLINK-5597,PAYLOAD,2024-01-17 21:59:52,14.98329094,0.0002546,69.9997,235.5699,264.3109,95.776,-3.1255e-05,-4.66e-06,0.0,0 STARLINK-5597,1 55403U 23014N   24017.91658003 -.00000466  00000-0 -31255-4 0  9991,2 55403  69.9997 235.5699 0002546 264.3109  95.7760 14.98329094 54955,6950.196,96.107,573.83,570.291,0.0
55403.0,STARLINK-5597,PAYLOAD,2024-01-18 01:12:08,14.98329121,0.0002544,69.9997,235.2333,264.1688,95.9181,-2.9527e-05,-4.45e-06,0.0,0 STARLINK-5597,1 55403U 23014N   24018.05010001 -.00000445  00000-0 -29527-4 0  9993,2 55403  69.9997 235.2333 0002544 264.1688  95.9181 14.98329121 54034,6950.196,96.107,573.829,570.292,0.0
55403.0,STARLINK-5597,PAYLOAD,2024-01-18 22:01:53,14.9833246,0.0002694,69.9992,233.0446,264.8324,95.2528,4.3936e-05,4.31e-06,0.0,0 STARLINK-5597,1 55403U 23014N   24018.91797494  .00000431  00000-0  43936-4 0  9999,2 55403  69.9992 233.0446 0002694 264.8324  95.2528 14.98332460 55107,6950.185,96.107,573.923,570.178,0.0
55403.0,STARLINK-5597,PAYLOAD,2024-01-18 23:38:01,14.98332752,0.000276,69.999,232.8755,270.0401,90.0442,4.6494e-05,4.62e-06,0.0,0 STARLINK-5597,1 55403U 23014N   24018.98473480  .00000462  00000-0  46494-4 0  9998,2 55403  69.9990 232.8755 0002760 270.0401  90.0442 14.98332752 54172,6950.184,96.107,573.968,570.131,0.0
55403.0,STARLINK-5597,PAYLOAD,2024-01-19 14:03:13,14.9833051,0.0002745,69.999,231.3608,270.2581,89.8263,1.7904e-05,1.21e-06,0.0,0 STARLINK-5597,1 55403U 23014N   24019.58557643  .00000121  00000-0  17904-4 0  9995,2 55403  69.9990 231.3608 0002745 270.2581  89.8263 14.98330510 55209,6950.191,96.107,573.964,570.148,0.0
55403.0,STARLINK-5597,PAYLOAD,2024-01-19 22:03:54,14.98330247,0.0002756,69.999,230.5192,270.6641,89.4202,1.3251e-05,6.5e-07,0.0,0 STARLINK-5597,1 55403U 23014N   24019.91937651  .00000065  00000-0  13251-4 0  9991,2 55403  69.9990 230.5192 0002756 270.6641  89.4202 14.98330247 55252,6950.192,96.107,573.973,570.142,0.0
55403.0,STARLINK-5597,PAYLOAD,2024-01-19 23:40:02,14.98328912,0.0002768,69.9989,230.3505,271.032,89.0521,-1.5608e-06,-1.12e-06,0.0,0 STARLINK-5597,1 55403U 23014N   24019.98613776 -.00000112  00000-0 -15608-5 0  9991,2 55403  69.9989 230.3505 0002768 271.0320  89.0521 14.98328912 54321,6950.196,96.107,573.985,570.137,0.0
55403.0,STARLINK-5597,PAYLOAD,2024-01-20 14:05:15,14.98327948,0.0002704,69.9988,228.8349,271.0918,88.9931,-5.2993e-05,-7.25e-06,0.0,0 STARLINK-5597,1 55403U 23014N   24020.58698026 -.00000725  00000-0 -52993-4 0  9997,2 55403  69.9988 228.8349 0002704 271.0918  88.9931 14.98327948 55356,6950.199,96.107,573.944,570.185,0.0
55403.0,STARLINK-5597,PAYLOAD,2024-01-20 22:05:55,14.98329637,0.0002689,69.999,227.9932,271.3526,88.7325,-2.6197e-05,-4.06e-06,0.0,0 STARLINK-5597,1 55403U 23014N   24020.92077867 -.00000406  00000-0 -26197-4 0  9992,2 55403  69.9990 227.9932 0002689 271.3526  88.7325 14.98329637 55405,6950.194,96.107,573.928,570.19,0.0
55403.0,STARLINK-5597,PAYLOAD,2024-01-20 23:42:03,14.98330341,0.000268,69.999,227.8253,270.3834,89.7018,-1.845e-05,-3.13e-06,0.0,0 STARLINK-5597,1 55403U 23014N   24020.98753797 -.00000313  00000-0 -18450-4 0  9991,2 55403  69.9990 227.8253 0002680 270.3834  89.7018 14.98330341 54472,6950.192,96.107,573.919,570.194,0.0
55403.0,STARLINK-5597,PAYLOAD,2024-01-21 18:55:42,14.98304685,0.0002287,70.0012,225.808,265.7332,94.3566,-0.00016293,-2.035e-05,0.0,0 STARLINK-5597,1 55403U 23014N   24021.78868689 -.00002035  00000-0 -16293-3 0  9992,2 55403  70.0012 225.8080 0002287 265.7332  94.3566 14.98304685 54595,6950.271,96.109,573.726,570.547,0.0
55403.0,STARLINK-5597,PAYLOAD,2024-01-21 22:07:57,14.98320306,0.0002652,69.9996,225.4719,265.86,94.2256,-4.4309e-05,-6.21e-06,0.0,0 STARLINK-5597,1 55403U 23014N   24021.92219457 -.00000621  00000-0 -44309-4 0  9990,2 55403  69.9996 225.4719 0002652 265.8600  94.2256 14.98320306 55553,6950.223,96.108,573.931,570.245,0.0
55403.0,STARLINK-5597,PAYLOAD,2024-01-21 23:44:05,14.98325228,0.0002817,69.9994,225.3007,272.1209,87.9628,2.5066e-05,2.06e-06,0.0,0 STARLINK-5597,1 55403U 23014N   24021.98894888  .00000206  00000-0  25066-4 0  9999,2 55403  69.9994 225.3007 0002817 272.1209  87.9628 14.98325228 54626,6950.208,96.107,574.031,570.115,0.0
55403.0,STARLINK-5597,PAYLOAD,2024-01-22 22:09:57,14.98330618,0.0002863,69.9993,222.9454,271.26,88.8231,7.4905e-05,8.01e-06,0.0,0 STARLINK-5597,1 55403U 23014N   24022.92358673  .00000801  00000-0  74905-4 0  9998,2 55403  69.9993 222.9454 0002863 271.2600  88.8231 14.98330618 55709,6950.191,96.107,574.046,570.066,0.0
55403.0,STARLINK-5597,PAYLOAD,2024-01-23 22:11:58,14.98329663,0.0003007,69.9993,220.4205,272.4077,87.6737,0.00028563,3.317e-05,0.0,0 STARLINK-5597,1 55403U 23014N   24023.92498347  .00003317  00000-0  28563-3 0  9995,2 55403  69.9993 220.4205 0003007 272.4077  87.6737 14.98329663 55850,6950.194,96.107,574.149,569.969,0.0
55403.0,STARLINK-5597,PAYLOAD,2024-01-24 14:13:18,14.98342112,0.0002981,69.9993,218.7374,270.9423,89.1395,4.1855e-05,4.07e-06,0.0,0 STARLINK-5597,1 55403U 23014N   24024.59257724  .00000407  00000-0  41855-4 0  9998,2 55403  69.9993 218.7374 0002981 270.9423  89.1395 14.98342112 55957,6950.155,96.106,574.092,569.949,0.0
55403.0,STARLINK-5597,PAYLOAD,2024-01-24 20:37:50,14.98343394,0.0002939,69.9994,218.0641,269.5372,90.545,5.4668e-05,5.6e-06,0.0,0 STARLINK-5597,1 55403U 23014N   24024.85961360  .00000560  00000-0  54668-4 0  9991,2 55403  69.9994 218.0641 0002939 269.5372  90.5450 14.98343394 55050,6950.151,96.106,574.059,569.974,0.0
55403.0,STARLINK-5597,PAYLOAD,2024-01-24 22:13:58,14.98343625,0.000294,69.9994,217.8958,269.6491,90.4331,5.5479e-05,5.69e-06,0.0,0 STARLINK-5597,1 55403U 23014N   24024.92637276  .00000569  00000-0  55479-4 0  9995,2 55403  69.9994 217.8958 0002940 269.6491  90.4331 14.98343625 56003,6950.151,96.106,574.059,569.972,0.0
